{"fetched_at":"2026-07-19T17:31:54.212Z","source":"https://celestrak.org/NORAD/elements/gp.php?NAME=SENTINEL&FORMAT=JSON","constellation":"sentinel-2","records":[{"OBJECT_NAME":"SENTINEL-2A","OBJECT_ID":"2015-028A","EPOCH":"2026-07-19T07:30:09.252576","CLASSIFICATION_TYPE":"U","MEAN_MOTION":14.30815446,"ECCENTRICITY":0.00013053,"INCLINATION":98.5672,"RA_OF_ASC_NODE":274.7066,"ARG_OF_PERICENTER":96.4214,"MEAN_ANOMALY":263.7118,"EPHEMERIS_TYPE":0,"NORAD_CAT_ID":40697,"ELEMENT_SET_NO":999,"REV_AT_EPOCH":57832,"BSTAR":0.000048485062,"MEAN_MOTION_DOT":8.3e-7,"MEAN_MOTION_DDOT":0},{"OBJECT_NAME":"SENTINEL-2B","OBJECT_ID":"2017-013A","EPOCH":"2026-07-19T07:19:47.915616","CLASSIFICATION_TYPE":"U","MEAN_MOTION":14.30816105,"ECCENTRICITY":0.00012304,"INCLINATION":98.5679,"RA_OF_ASC_NODE":274.6251,"ARG_OF_PERICENTER":94.9305,"MEAN_ANOMALY":265.2019,"EPHEMERIS_TYPE":0,"NORAD_CAT_ID":42063,"ELEMENT_SET_NO":999,"REV_AT_EPOCH":48923,"BSTAR":0.000034862502,"MEAN_MOTION_DOT":4.8e-7,"MEAN_MOTION_DDOT":0},{"OBJECT_NAME":"SENTINEL-2C","OBJECT_ID":"2024-157A","EPOCH":"2026-07-19T04:48:46.259424","CLASSIFICATION_TYPE":"U","MEAN_MOTION":14.30816368,"ECCENTRICITY":0.00010183,"INCLINATION":98.5682,"RA_OF_ASC_NODE":274.5278,"ARG_OF_PERICENTER":105.683,"MEAN_ANOMALY":254.4465,"EPHEMERIS_TYPE":0,"NORAD_CAT_ID":60989,"ELEMENT_SET_NO":999,"REV_AT_EPOCH":9756,"BSTAR":0.000031282868,"MEAN_MOTION_DOT":3.8e-7,"MEAN_MOTION_DDOT":0}]}
