SENTINEL-2A             
1 40697U 15028A   26200.31260709  .00000083  00000+0  48485-4 0  9993
2 40697  98.5672 274.7066 0001305  96.4214 263.7118 14.30815446578321
SENTINEL-2B             
1 42063U 17013A   26200.30541569  .00000048  00000+0  34863-4 0  9999
2 42063  98.5679 274.6251 0001230  94.9305 265.2019 14.30816105489234
SENTINEL-2C             
1 60989U 24157A   26200.20053541  .00000038  00000+0  31283-4 0  9992
2 60989  98.5682 274.5278 0001018 105.6830 254.4465 14.30816368 97567
